[{"OBJECT_NAME":"GEESAT-6 10","OBJECT_ID":"2025-214L","EPOCH":"2026-03-09T22:56:54.596544","MEAN_MOTION":14.83010586,"ECCENTRICITY":0.00119289,"INCLINATION":49.9894,"RA_OF_ASC_NODE":48.3383,"ARG_OF_PERICENTER":214.2283,"MEAN_ANOMALY":145.7887,"EPHEMERIS_TYPE":0,"CLASSIFICATION_TYPE":"U","NORAD_CAT_ID":65722,"ELEMENT_SET_NO":999,"REV_AT_EPOCH":2477,"BSTAR":0.00035859294,"MEAN_MOTION_DOT":2.723e-5,"MEAN_MOTION_DDOT":0},{"OBJECT_NAME":"CZ-6A DEB","OBJECT_ID":"2024-140KH","EPOCH":"2026-03-09T14:59:57.464160","MEAN_MOTION":15.05079233,"ECCENTRICITY":0.0091207,"INCLINATION":89.0655,"RA_OF_ASC_NODE":284.096,"ARG_OF_PERICENTER":124.4022,"MEAN_ANOMALY":236.5882,"EPHEMERIS_TYPE":0,"CLASSIFICATION_TYPE":"U","NORAD_CAT_ID":60878,"ELEMENT_SET_NO":999,"REV_AT_EPOCH":8457,"BSTAR":0.0027733,"MEAN_MOTION_DOT":0.00043481,"MEAN_MOTION_DDOT":0}]
